{"type":"FeatureCollection","features":[{"type":"Feature","properties":{"id":"AT-VIE-WIEN-001","name":"Wienfluss at Stadtpark","city":"Vienna","country":"AT","impervious_proxy":0.78,"steward_user_id":"maria.schmidt@example.org","type":"stream"},"geometry":{"type":"Point","coordinates":[16.3797,48.2086]}},{"type":"Feature","properties":{"id":"PT-LIS-SEIX-001","name":"Seixal Stream","city":"Lisbon","country":"PT","impervious_proxy":0.84,"steward_user_id":"elena.vasquez@lisboa.pt","type":"stream"},"geometry":{"type":"Point","coordinates":[-9.1350,38.7500]}},{"type":"Feature","properties":{"id":"PT-POR-LECA-001","name":"Leça Stream","city":"Porto","country":"PT","impervious_proxy":0.71,"steward_user_id":"sofia.rossi@porto.pt","type":"stream"},"geometry":{"type":"Point","coordinates":[-8.6700,41.1700]}},{"type":"Feature","properties":{"id":"BG-SOF-PERL-001","name":"Perlovska Stream","city":"Sofia","country":"BG","impervious_proxy":0.69,"steward_user_id":"maria.schmidt@example.org","type":"stream"},"geometry":{"type":"Point","coordinates":[23.7300,42.6900]}},{"type":"Feature","properties":{"id":"AT-VIE-OTTA-001","name":"Ottakringer Bach","city":"Vienna","country":"AT","impervious_proxy":0.62,"steward_user_id":"maria.schmidt@example.org","type":"stream"},"geometry":{"type":"Point","coordinates":[16.3400,48.2200]}}]}