{"type":"FeatureCollection","features":[{"type":"Feature","properties":{"id":"CH-ZUR-01","name":"Lake Zurich","region":"Alpine","country":"CH","centroid":[8.541,47.327],"area_km2":88,"has_replay":true,"replay_event":"lake-zurich-2022","type":"lake"},"geometry":{"type":"Point","coordinates":[8.541,47.327]}},{"type":"Feature","properties":{"id":"CH-GVA-01","name":"Lake Geneva","region":"Alpine","country":"CH","centroid":[6.143,46.396],"area_km2":580,"has_replay":false,"type":"lake"},"geometry":{"type":"Point","coordinates":[6.143,46.396]}},{"type":"Feature","properties":{"id":"IT-MAG-01","name":"Lake Maggiore","region":"Alpine","country":"IT","centroid":[8.721,46.078],"area_km2":212,"has_replay":false,"type":"lake"},"geometry":{"type":"Point","coordinates":[8.721,46.078]}},{"type":"Feature","properties":{"id":"DE-CON-01","name":"Lake Constance","region":"Alpine","country":"DE","centroid":[9.456,47.683],"area_km2":536,"has_replay":false,"type":"lake"},"geometry":{"type":"Point","coordinates":[9.456,47.683]}},{"type":"Feature","properties":{"id":"IT-GAR-01","name":"Lake Garda","region":"Alpine","country":"IT","centroid":[10.789,45.624],"area_km2":370,"has_replay":false,"type":"lake"},"geometry":{"type":"Point","coordinates":[10.789,45.624]}},{"type":"Feature","properties":{"id":"IT-COM-01","name":"Lake Como","region":"Alpine","country":"IT","centroid":[9.250,46.017],"area_km2":146,"has_replay":false,"type":"lake"},"geometry":{"type":"Point","coordinates":[9.250,46.017]}},{"type":"Feature","properties":{"id":"PT-ALQ-01","name":"Alqueva Reservoir","region":"Iberian","country":"PT","centroid":[-7.423,38.235],"area_km2":250,"has_replay":false,"type":"reservoir"},"geometry":{"type":"Point","coordinates":[-7.423,38.235]}},{"type":"Feature","properties":{"id":"ES-SNB-01","name":"Lake Sanabria","region":"Iberian","country":"ES","centroid":[-6.793,42.121],"area_km2":36,"has_replay":false,"type":"lake"},"geometry":{"type":"Point","coordinates":[-6.793,42.121]}},{"type":"Feature","properties":{"id":"PT-TAG-01","name":"Tagus Estuary","region":"Iberian","country":"PT","centroid":[-9.061,38.717],"area_km2":320,"has_replay":false,"type":"estuary"},"geometry":{"type":"Point","coordinates":[-9.061,38.717]}},{"type":"Feature","properties":{"id":"US-ERI-01","name":"Western Lake Erie","region":"Great Lakes","country":"US","centroid":[-82.700,41.700],"area_km2":1500,"has_replay":true,"replay_event":"lake-erie-2014","type":"lake"},"geometry":{"type":"Point","coordinates":[-82.700,41.700]}},{"type":"Feature","properties":{"id":"US-SBW-01","name":"Saginaw Bay","region":"Great Lakes","country":"US","centroid":[-83.800,43.900],"area_km2":1000,"has_replay":false,"type":"lake"},"geometry":{"type":"Point","coordinates":[-83.800,43.900]}},{"type":"Feature","properties":{"id":"US-GBY-01","name":"Green Bay","region":"Great Lakes","country":"US","centroid":[-87.900,44.500],"area_km2":1500,"has_replay":false,"type":"lake"},"geometry":{"type":"Point","coordinates":[-87.900,44.500]}},{"type":"Feature","properties":{"id":"US-LCH-01","name":"Lake Champlain","region":"Great Lakes","country":"US","centroid":[-73.300,44.500],"area_km2":1250,"has_replay":false,"type":"lake"},"geometry":{"type":"Point","coordinates":[-73.300,44.500]}},{"type":"Feature","properties":{"id":"IN-VEM-01","name":"Lake Vembanad","region":"Global South","country":"IN","centroid":[76.300,9.900],"area_km2":2033,"has_replay":true,"replay_event":"lake-vembanad-2019","type":"lake"},"geometry":{"type":"Point","coordinates":[76.300,9.900]}},{"type":"Feature","properties":{"id":"UG-VIC-01","name":"Lake Victoria","region":"Global South","country":"UG","centroid":[32.500,1.000],"area_km2":59947,"has_replay":false,"type":"lake"},"geometry":{"type":"Point","coordinates":[32.500,1.000]}},{"type":"Feature","properties":{"id":"KE-NIV-01","name":"Lake Naivasha","region":"Global South","country":"KE","centroid":[36.400,-0.720],"area_km2":140,"has_replay":false,"type":"lake"},"geometry":{"type":"Point","coordinates":[36.400,-0.720]}},{"type":"Feature","properties":{"id":"ET-TAN-01","name":"Lake Tana","region":"Global South","country":"ET","centroid":[37.300,12.000],"area_km2":3000,"has_replay":false,"type":"lake"},"geometry":{"type":"Point","coordinates":[37.300,12.000]}},{"type":"Feature","properties":{"id":"PH-LGB-01","name":"Laguna de Bay","region":"Global South","country":"PH","centroid":[121.200,14.300],"area_km2":900,"has_replay":false,"type":"lake"},"geometry":{"type":"Point","coordinates":[121.200,14.300]}},{"type":"Feature","properties":{"id":"CN-TAI-01","name":"Lake Taihu","region":"Global South","country":"CN","centroid":[120.100,31.000],"area_km2":2250,"has_replay":false,"type":"lake"},"geometry":{"type":"Point","coordinates":[120.100,31.000]}}]}